ONEWEB-0435             
1 51632U 22012L   24291.38990998  .00000655  00000+0  18405-2 0  9992
2 51632  87.8935 157.2769 0002079  83.3429 276.7935 13.10375397129711
ONEWEB-0436             
1 51633U 22012M   24292.02659366  .00000055  00000+0  10743-3 0  9998
2 51633  87.9078 126.8036 0001885  84.1934 275.9412 13.17651549135018
ONEWEB-0438             
1 51634U 22012N   24292.13686538 -.00000047  00000+0 -17169-3 0  9994
2 51634  87.8940 157.1294 0001385  79.6624 280.4659 13.10374576131137
ONEWEB-0439             
1 51635U 22012P   24292.14019251 -.00000058  00000+0 -20367-3 0  9994
2 51635  87.8941 157.1144 0001649  79.0024 281.1289 13.10376621131101
ONEWEB-0442             
1 51636U 22012Q   24291.79120123  .00000001  00000+0 -30096-4 0  9994
2 51636  87.9083 126.8894 0000933  72.1053 288.0180 13.17650233133688
ONEWEB-0443             
1 51637U 22012R   24292.03842601  .00000059  00000+0  11904-3 0  9993
2 51637  87.9086 126.8511 0001524  99.8794 260.2510 13.17645328135054
ONEWEB-0444             
1 51638U 22012S   24292.13022782 -.00000399  00000+0 -11791-2 0  9997
2 51638  87.8936 157.1321 0001742  83.1542 276.9783 13.10374263131123
ONEWEB-0445             
1 51639U 22012T   24291.38826892  .00000714  00000+0  20084-2 0  9992
2 51639  87.8928 157.2451 0001531  70.0344 290.0948 13.10375923129740
